{
  "norad_id": 59721,
  "name": "STARLINK-31834",
  "history": [
    {
      "epoch": "2026-04-15T21:08:25.719072Z",
      "apogee_km": 475.98952099210237,
      "perigee_km": 474.398177568899,
      "latitude_deg": -5.935459397157517e-05,
      "longitude_deg": 166.20472905726646,
      "height_km": 476.2629895421732,
      "semi_major_axis_km": 6853.3308492805,
      "eccentricity": 0.0001161,
      "inclination_deg": 53.1619,
      "raan_deg": 327.3485,
      "arg_perigee_deg": 102.3859,
      "mean_anomaly_deg": 257.7271,
      "mean_motion_rev_day": 15.30207107
    },
    {
      "epoch": "2026-04-15T21:08:25.719936Z",
      "apogee_km": 475.98952099210237,
      "perigee_km": 474.398177568899,
      "latitude_deg": -5.935459438057329e-05,
      "longitude_deg": 166.2047254474092,
      "height_km": 476.2629895421732,
      "semi_major_axis_km": 6853.3308492805,
      "eccentricity": 0.0001161,
      "inclination_deg": 53.1619,
      "raan_deg": 327.3485,
      "arg_perigee_deg": 102.3859,
      "mean_anomaly_deg": 257.7271,
      "mean_motion_rev_day": 15.30207107
    },
    {
      "epoch": "2026-04-17T21:44:04.824960Z",
      "apogee_km": 475.9396780233592,
      "perigee_km": 474.5437818436467,
      "latitude_deg": -3.45481572532291e-05,
      "longitude_deg": 145.89271679514778,
      "height_km": 476.14377738511075,
      "semi_major_axis_km": 6853.378729933503,
      "eccentricity": 0.00010184,
      "inclination_deg": 53.161,
      "raan_deg": 317.9451,
      "arg_perigee_deg": 90.2892,
      "mean_anomaly_deg": 269.8225,
      "mean_motion_rev_day": 15.30191071
    },
    {
      "epoch": "2026-04-18T07:08:23.968896Z",
      "apogee_km": 475.9571350671549,
      "perigee_km": 474.5224491694926,
      "latitude_deg": 6.353679901951075e-05,
      "longitude_deg": 2.6058609013332763,
      "height_km": 476.2023794353612,
      "semi_major_axis_km": 6853.3767921183235,
      "eccentricity": 0.00010467,
      "inclination_deg": 53.1611,
      "raan_deg": 316.1242,
      "arg_perigee_deg": 95.1266,
      "mean_anomaly_deg": 264.9855,
      "mean_motion_rev_day": 15.3019172
    },
    {
      "epoch": "2026-04-19T19:11:37.822848Z",
      "apogee_km": 476.08226321180155,
      "perigee_km": 474.4360774516881,
      "latitude_deg": 7.2532463156613335e-06,
      "longitude_deg": 173.34001422092433,
      "height_km": 476.22505220143125,
      "semi_major_axis_km": 6853.3961703317445,
      "eccentricity": 0.0001201,
      "inclination_deg": 53.1614,
      "raan_deg": 309.1468,
      "arg_perigee_deg": 94.7085,
      "mean_anomaly_deg": 265.4053,
      "mean_motion_rev_day": 15.3018523
    },
    {
      "epoch": "2026-04-20T06:09:59.807808Z",
      "apogee_km": 475.93378103527175,
      "perigee_km": 474.53295213234196,
      "latitude_deg": -4.502822004968594e-05,
      "longitude_deg": 6.1731346502972775,
      "height_km": 476.23584951353854,
      "semi_major_axis_km": 6853.370366583807,
      "eccentricity": 0.0001022,
      "inclination_deg": 53.1601,
      "raan_deg": 307.0222,
      "arg_perigee_deg": 98.5427,
      "mean_anomaly_deg": 261.5689,
      "mean_motion_rev_day": 15.30193872
    },
    {
      "epoch": "2026-04-21T18:13:11.735040Z",
      "apogee_km": 475.9073377579516,
      "perigee_km": 474.4804742633196,
      "latitude_deg": 2.4975117795376054e-05,
      "longitude_deg": 176.914329418071,
      "height_km": 476.14521696157163,
      "semi_major_axis_km": 6853.330906010636,
      "eccentricity": 0.0001041,
      "inclination_deg": 53.1594,
      "raan_deg": 300.0437,
      "arg_perigee_deg": 94.2594,
      "mean_anomaly_deg": 265.8526,
      "mean_motion_rev_day": 15.30207088
    },
    {
      "epoch": "2026-04-22T19:18:04.417920Z",
      "apogee_km": 475.75156304804113,
      "perigee_km": 474.73315087559695,
      "latitude_deg": 1.5590648445764618e-05,
      "longitude_deg": 154.80855541889014,
      "height_km": 476.12624099610946,
      "semi_major_axis_km": 6853.379356961818,
      "eccentricity": 7.43e-05,
      "inclination_deg": 53.1591,
      "raan_deg": 295.1875,
      "arg_perigee_deg": 88.3353,
      "mean_anomaly_deg": 271.7733,
      "mean_motion_rev_day": 15.30190861
    },
    {
      "epoch": "2026-04-22T22:26:10.975200Z",
      "apogee_km": 475.9749950870073,
      "perigee_km": 474.51796575907065,
      "latitude_deg": -3.422648130130552e-05,
      "longitude_deg": 107.04803975249024,
      "height_km": 476.1751411206273,
      "semi_major_axis_km": 6853.383480423039,
      "eccentricity": 0.0001063,
      "inclination_deg": 53.1597,
      "raan_deg": 294.5831,
      "arg_perigee_deg": 92.3865,
      "mean_anomaly_deg": 267.7257,
      "mean_motion_rev_day": 15.3018948
    },
    {
      "epoch": "2026-04-24T18:19:40.085760Z",
      "apogee_km": 475.93258506756774,
      "perigee_km": 474.53312694297074,
      "latitude_deg": -3.879141771664458e-05,
      "longitude_deg": 158.37948317660377,
      "height_km": 476.177151653132,
      "semi_major_axis_km": 6853.369856005269,
      "eccentricity": 0.0001021,
      "inclination_deg": 53.1604,
      "raan_deg": 286.0884,
      "arg_perigee_deg": 93.7558,
      "mean_anomaly_deg": 266.3559,
      "mean_motion_rev_day": 15.30194043
    },
    {
      "epoch": "2026-04-25T17:50:27.915360Z",
      "apogee_km": 475.9081895677173,
      "perigee_km": 474.52929439243144,
      "latitude_deg": -5.8719540110247655e-05,
      "longitude_deg": 160.16182173091886,
      "height_km": 476.07048733200435,
      "semi_major_axis_km": 6853.3557419800745,
      "eccentricity": 0.0001006,
      "inclination_deg": 53.1606,
      "raan_deg": 281.5357,
      "arg_perigee_deg": 86.1108,
      "mean_anomaly_deg": 274.0007,
      "mean_motion_rev_day": 15.3019877
    },
    {
      "epoch": "2026-04-26T20:29:22.262496Z",
      "apogee_km": 476.0070023345679,
      "perigee_km": 474.40222386244386,
      "latitude_deg": -5.118976908870802e-05,
      "longitude_deg": 114.18496927476156,
      "height_km": 476.0572854339327,
      "semi_major_axis_km": 6853.341613098505,
      "eccentricity": 0.00011708,
      "inclination_deg": 53.1582,
      "raan_deg": 276.3797,
      "arg_perigee_deg": 86.7595,
      "mean_anomaly_deg": 273.3539,
      "mean_motion_rev_day": 15.30203502
    },
    {
      "epoch": "2026-04-27T16:52:04.001376Z",
      "apogee_km": 476.02029328722983,
      "perigee_km": 474.442647865304,
      "latitude_deg": 3.214097043814417e-05,
      "longitude_deg": 163.72901458818762,
      "height_km": 476.1207238286052,
      "semi_major_axis_km": 6853.368470576267,
      "eccentricity": 0.0001151,
      "inclination_deg": 53.1599,
      "raan_deg": 272.4345,
      "arg_perigee_deg": 89.3487,
      "mean_anomaly_deg": 270.7646,
      "mean_motion_rev_day": 15.30194507
    },
    {
      "epoch": "2026-04-28T19:30:58.756320Z",
      "apogee_km": 475.91952747302366,
      "perigee_km": 474.5735229486718,
      "latitude_deg": -2.6914591086114103e-05,
      "longitude_deg": 117.75160903488684,
      "height_km": 476.02279740930385,
      "semi_major_axis_km": 6853.383525210847,
      "eccentricity": 9.82e-05,
      "inclination_deg": 53.1592,
      "raan_deg": 267.2797,
      "arg_perigee_deg": 79.5446,
      "mean_anomaly_deg": 280.5665,
      "mean_motion_rev_day": 15.30189465
    },
    {
      "epoch": "2026-04-29T19:01:46.164288Z",
      "apogee_km": 475.8586501962809,
      "perigee_km": 474.5578852644667,
      "latitude_deg": -6.91162799994568e-05,
      "longitude_deg": 119.53569319311111,
      "height_km": 476.0396056939032,
      "semi_major_axis_km": 6853.345267730374,
      "eccentricity": 9.49e-05,
      "inclination_deg": 53.159,
      "raan_deg": 262.727,
      "arg_perigee_deg": 84.0799,
      "mean_anomaly_deg": 276.0309,
      "mean_motion_rev_day": 15.30202278
    },
    {
      "epoch": "2026-04-30T15:24:27.326016Z",
      "apogee_km": 475.77248881174,
      "perigee_km": 474.60481918681216,
      "latitude_deg": 1.777451170806128e-05,
      "longitude_deg": 169.0826516361149,
      "height_km": 475.9844099173353,
      "semi_major_axis_km": 6853.325653999275,
      "eccentricity": 8.519e-05,
      "inclination_deg": 53.1589,
      "raan_deg": 258.7823,
      "arg_perigee_deg": 79.8604,
      "mean_anomaly_deg": 280.2493,
      "mean_motion_rev_day": 15.30208847
    },
    {
      "epoch": "2026-05-02T01:53:38.194656Z",
      "apogee_km": 475.88232804708423,
      "perigee_km": 474.6130811997873,
      "latitude_deg": 3.02800001553289e-05,
      "longitude_deg": 3.6961690996966907,
      "height_km": 476.2420885741944,
      "semi_major_axis_km": 6853.384704623435,
      "eccentricity": 9.26e-05,
      "inclination_deg": 53.1593,
      "raan_deg": 252.1074,
      "arg_perigee_deg": 98.693,
      "mean_anomaly_deg": 261.4176,
      "mean_motion_rev_day": 15.3018907
    },
    {
      "epoch": "2026-05-03T17:04:58.410624Z",
      "apogee_km": 475.9952520514498,
      "perigee_km": 474.5094372415306,
      "latitude_deg": 1.5125334311909106e-05,
      "longitude_deg": 126.67038747122004,
      "height_km": 476.18372252967794,
      "semi_major_axis_km": 6853.38934464649,
      "eccentricity": 0.0001084,
      "inclination_deg": 53.1596,
      "raan_deg": 244.5253,
      "arg_perigee_deg": 92.5536,
      "mean_anomaly_deg": 267.5589,
      "mean_motion_rev_day": 15.30187516
    },
    {
      "epoch": "2026-05-04T16:35:46.347360Z",
      "apogee_km": 475.9496914365027,
      "perigee_km": 474.5324128553184,
      "latitude_deg": 2.791190857854697e-06,
      "longitude_deg": 128.45108097865636,
      "height_km": 476.27745306580186,
      "semi_major_axis_km": 6853.37805214591,
      "eccentricity": 0.0001034,
      "inclination_deg": 53.1596,
      "raan_deg": 239.9714,
      "arg_perigee_deg": 101.2319,
      "mean_anomaly_deg": 258.8798,
      "mean_motion_rev_day": 15.30191298
    }
  ]
}